LEMUR-1                 
1 40044U 14033AL  19020.89696316  .00000088  00000-0  20563-4 0  9999
2 40044  97.7781 254.4351 0058242 217.5787 142.1345 14.74048599246255
LEMUR-2-JOEL            
1 40932U 15052C   19020.37228708  .00000805  00000-0  21391-4 0  9993
2 40932   6.0113  29.5013 0014096 230.8520 129.0354 14.77777659179260
LEMUR-2-CHRIS           
1 40933U 15052D   19013.70151093  .00000822  00000-0  23597-4 0  9994
2 40933   6.0100  75.0574 0013868 143.2352 216.8728 14.77935180178298
LEMUR-2-PETER           
1 40935U 15052F   19013.69635912  .00000766  00000-0  17571-4 0  9993
2 40935   6.0084  87.3743 0009317 111.7635 248.3484 14.77062933178165
LEMUR-2-XIAOQING        
1 41871U 16062C   19020.72246839  .00000241  00000-0  23015-4 0  9991
2 41871  51.6428 193.1252 0005667 178.7023 181.3971 15.25084874119773
LEMUR-2-SOKOLSKY        
1 41872U 16062D   19020.87982990  .00001625  00000-0  78022-4 0  9998
2 41872  51.6860 194.8317 0002642 303.9096  56.1631 15.24855617119789
LEMUR-2-ANUBHAVTHAKUR   
1 41873U 16062E   19020.89369863  .00001074  00000-0  59640-4 0  9992
2 41873  51.6269 199.6761 0005194 130.2617 229.8814 15.22667997119674
LEMUR-2-WINGO           
1 41874U 16062F   19020.90057512  .00001108  00000-0  58103-4 0  9991
2 41874  51.6491 194.8775 0013689 112.4033 247.8397 15.24558164119758
LEMUR-2-SATCHMO         
1 41991U 17008AV  19020.90660104  .00000808  00000-0  36462-4 0  9999
2 41991  97.4229  88.4246 0006479 322.4963  37.5822 15.23853915106552
LEMUR-2-MIA-GRACE       
1 41992U 17008AW  19020.88634629  .00001135  00000-0  48805-4 0  9998
2 41992  97.4240  88.9538 0006275 321.1966  38.8821 15.24687184106588
LEMUR-2-SMITA-SHARAD    
1 41993U 17008AX  19020.83667105  .00000787  00000-0  35393-4 0  9999
2 41993  97.4228  88.5106 0006402 322.1178  37.9608 15.24039065106559
LEMUR-2-SPIRE-MINIONS   
1 41994U 17008AY  19020.90659026  .00001144  00000-0  49254-4 0  9990
2 41994  97.4237  88.9027 0006295 319.9464  40.1309 15.24641840106585
LEMUR-2-RDEATON         
1 41995U 17008AZ  19020.94489300  .00000803  00000-0  35960-4 0  9991
2 41995  97.4229  88.6847 0007765 335.4422  24.6445 15.24103256107251
LEMUR-2-NOGUECORREIG    
1 41996U 17008BA  19020.76993099  .00001026  00000-0  44549-4 0  9998
2 41996  97.4253  88.8522 0007562 335.6511  24.4368 15.24565765106468
LEMUR-2-JOBANPUTRA      
1 41997U 17008BB  19021.82619396  .00001140  00000-0  48918-4 0  9993
2 41997  97.4248  90.0390 0007482 331.2394  28.8430 15.24749437106720
LEMUR-2-TACHIKOMA       
1 41998U 17008BC  19020.84763797  .00000791  00000-0  35590-4 0  9993
2 41998  97.4228  88.5003 0007694 336.6612  23.4275 15.23998343106470
LEMUR-2-ANGELA          
1 42752U 17019B   19021.75695987  .00001173  00000-0  52339-4 0  9995
2 42752  51.6414 120.6174 0009499 268.7250  91.2642 15.29844991 90561
LEMUR-2-JENNYBARNA      
1 42753U 17019C   19021.77032130  .00001122  00000-0  49380-4 0  9999
2 42753  51.6414 118.5045 0009174 270.6903  89.3027 15.30709924 90543
LEMUR-2-ROBMOORE        
1 42754U 17019D   19021.65895324  .00000976  00000-0  45759-4 0  9991
2 42754  51.6414 121.4479 0009470 271.4637  88.5259 15.29749606 90525
LEMUR-2-SPIROVISION     
1 42755U 17019E   19021.48563413  .00002608  00000-0  98466-4 0  9991
2 42755  51.6403 120.1319 0009039 264.4661 183.9194 15.30765497 90417
LEMUR-2-SHAINAJOHL      
1 42771U 17036G   19020.78800983  .00000942  00000-0  44615-4 0  9992
2 42771  97.3743  81.1742 0015416  29.2318 330.9778 15.21664871 87587
LEMUR-2-XUENITERENCE    
1 42772U 17036H   19020.89527169  .00001087  00000-0  50840-4 0  9995
2 42772  97.3730  81.3109 0015023  28.4305 331.7747 15.21792662 87602
LEMUR-2-LUCYBRYCE       
1 42773U 17036J   19021.71491017  .00000610  00000-0  29646-4 0  9991
2 42773  97.3753  82.4007 0014593  25.0172 335.1768 15.22076819 87749
LEMUR-2-KUNGFOO         
1 42774U 17036K   19021.79136689  .00000958  00000-0  45116-4 0  9996
2 42774  97.3741  82.2742 0014698  25.4163 334.7793 15.21814398 87734
LEMUR-2-LYNSEY-SYMO     
1 42779U 17036Q   19020.94395480  .00001193  00000-0  53753-4 0  9991
2 42779  97.3757  82.2369 0012903  36.8587 323.3534 15.22912558 87649
LEMUR-2-LISASAURUS      
1 42780U 17036R   19020.88991924  .00000817  00000-0  38260-4 0  9999
2 42780  97.3746  81.9596 0013029  37.3200 322.8939 15.22464967 87633
LEMUR-2-SAM-AMELIA      
1 42781U 17036S   19020.87071461  .00000643  00000-0  30470-4 0  9996
2 42781  97.3756  82.1571 0012960  37.1495 323.0636 15.22789830 87634
LEMUR-2-MCPEAKE         
1 42782U 17036T   19020.82033358  .00000921  00000-0  42458-4 0  9993
2 42782  97.3755  82.0930 0012758  37.2527 322.9592 15.22688675 87627
LEMUR-2-GREENBERG       
1 42837U 17042N   19020.66952129  .00000503  00000-0  55323-4 0  9990
2 42837  97.5821 280.1347 0012720 187.4121 172.6912 14.91712434 82777
LEMUR-2-ANDIS           
1 42838U 17042P   19020.72761372  .00000529  00000-0  57820-4 0  9998
2 42838  97.5820 280.2094 0012814 187.0774 173.0266 14.91737348 82780
LEMUR-2-MONSON          
1 42839U 17042Q   19020.66636851  .00000343  00000-0  39456-4 0  9994
2 42839  97.5821 280.1354 0012535 186.7819 173.3232 14.91614627 82775
LEMUR-2-FURIAUS         
1 42840U 17042R   19021.76525836  .00000101  00000-0  15382-4 0  9992
2 42840  97.5821 281.2823 0012868 182.7192 177.3959 14.91763825 82932
LEMUR-2-PETERG          
1 42841U 17042S   19021.77059403  .00000126  00000-0  17774-4 0  9990
2 42841  97.5824 281.4358 0012506 180.1871 179.9346 14.91969989 82955
LEMUR-2-DEMBITZ         
1 42842U 17042T   19021.76387294  .00000084  00000-0  13561-4 0  9995
2 42842  97.5822 281.4334 0012534 180.8897 179.2303 14.91992828 82958
LEMUR-2-ZACHARY         
1 42845U 17042W   19020.68145276  .00000349  00000-0  39543-4 0  9992
2 42845  97.5770 280.2051 0012565 189.2929 170.8060 14.92221973 82795
LEMUR-2-ARTFISCHER      
1 42881U 17042BJ  19020.93061093  .00003079  00000-0  85209-4 0  9997
2 42881  96.9599 271.1286 0013669  43.5165 316.7157 15.37616687 85056
LEMUR-2-ROCKETJONAH     
1 43041U 17071E   19021.71976407  .00003584  00000-0  92401-4 0  9992
2 43041  51.6392  52.5843 0000231 161.1837 198.9157 15.41916366 65609
LEMUR-2-YONGLIN         
1 43045U 17071J   19021.70282124  .00003933  00000-0  98225-4 0  9999
2 43045  51.6395  51.7380 0004088 333.7569  26.3209 15.42624015 63334
LEMUR-2-KEVIN           
1 43046U 17071K   19020.88846976  .00002329  00000-0  63802-4 0  9990
2 43046  51.6404  56.8174 0003579 330.5847  29.4937 15.41730856 63209
LEMUR-2-BRIANDAVIE      
1 43047U 17071L   19020.64340720  .00003785  00000-0  98068-4 0  9990
2 43047  51.6391  58.8792 0003114  14.5292 345.5782 15.41599476 63145
LEMUR-2-ROMACOSTE       
1 43048U 17071M   19020.53674295  .00003766  00000-0  96344-4 0  9990
2 43048  51.6398  58.9456 0003010  14.2058 345.9011 15.42012902 63136
LEMUR-2-MCCULLAGH       
1 43051U 17071Q   19020.89550562  .00004100  00000-0  10391-3 0  9993
2 43051  51.6395  56.8354 0001318 122.7654 237.3459 15.42042986 63143
LEMUR-2-DUNLOP          
1 43053U 17071S   19021.51993203  .00002766  00000-0  74829-4 0  9991
2 43053  51.6390  54.9756 0001473 117.9828 242.1307 15.41359075 63231
LEMUR-2-LIU-POU-CHUN    
1 43054U 17071T   19020.56258987  .00003190  00000-0  83350-4 0  9990
2 43054  51.6393  58.3615 0000145 106.9463 253.1538 15.41891148 63101
LEMUR-2-MCCAFFERTY      
1 43123U 18004N   19020.88090909  .00001087  00000-0  48255-4 0  9995
2 43123  97.5090  88.9967 0011140  59.7351 300.4987 15.23689095 56852
LEMUR-2-PETERWEBSTER    
1 43124U 18004P   19020.70530074  .00001216  00000-0  53967-4 0  9999
2 43124  97.5089  88.7713 0011306  59.5684 300.6669 15.23479605 56829
LEMUR-2-BROWNCOW        
1 43125U 18004Q   19020.74284146  .00001423  00000-0  62230-4 0  9993
2 43125  97.5087  88.8670 0011161  61.0715 299.1639 15.23707278 56833
LEMUR-2-DAVEWILSON      
1 43126U 18004R   19020.74960131  .00001304  00000-0  57460-4 0  9996
2 43126  97.5089  88.8671 0011158  61.2592 298.9765 15.23591702 56838
LEMUR-2-MARSHALL        
1 43165U 18010C   19020.82799592  .00000916  00000-0  41286-4 0  9993
2 43165  82.9191 157.7619 0032746  46.5831 313.8121 15.19136593 55356
LEMUR-2-TALLHAMN-ATC    
1 43167U 18010E   19021.85553485  .00001221  00000-0  59125-4 0  9999
2 43167  82.9222 157.9033 0026135  51.6261 308.7315 15.17251398 55441
LEMUR-2-JIN-LUEN        
1 43182U 18014C   19020.80111884  .00000125  00000-0  16258-4 0  9999
2 43182  97.7118 290.7730 0014857 142.4646 217.7616 14.96102062 52843
LEMUR-2-URAMCHANSOL     
1 43183U 18014D   19020.79261396 -.00000105  00000-0 -42210-5 0  9990
2 43183  97.7120 290.7814 0014670 142.4862 217.7385 14.96144629 52841
LEMUR-2-KADI            
1 43184U 18014E   19020.78734766 -.00000127  00000-0 -61608-5 0  9992
2 43184  97.7122 290.7900 0014582 143.0018 217.2212 14.96174579 52843
LEMUR-2-THENICKMOLO     
1 43185U 18014F   19020.78111899  .00000050  00000-0  96050-5 0  9991
2 43185  97.7125 290.7980 0014360 143.0545 217.1668 14.96163070 52842
LEMUR-2-VU              
1 43558U 18046E   19020.54989070  .00002765  00000-0  11051-3 0  9999
2 43558  51.6427  51.4717 0007601 257.7380 102.2749 15.28605455 28740
LEMUR-2-ALEXANDER       
1 43559U 18046F   19020.48353052  .00003019  00000-0  11941-3 0  9999
2 43559  51.6426  51.7788 0007585 257.4848 102.5283 15.28628717 28515
LEMUR-2-YUASA           
1 43560U 18046G   19020.87944134  .00002225  00000-0  91400-4 0  9998
2 43560  51.6433  49.9169 0007910 273.6748  86.3328 15.28607935 28796
LEMUR-2-TOMHENDERSON    
1 43561U 18046H   19020.87725400  .00002120  00000-0  87609-4 0  9992
2 43561  51.6434  49.9036 0007936 273.8078  86.1995 15.28643362 28351
LEMUR-2-ZUPANSKI        
1 43695U 18088F   19020.84144631  .00001233  00000-0  55478-4 0  9997
2 43695  85.0308  56.3896 0019016  37.6550 322.6018 15.19818417 10731
